[{"OBJECT_NAME":"STARLINK-34972","OBJECT_ID":"2025-175Q","EPOCH":"2026-03-09T15:19:18.141888","MEAN_MOTION":15.05650158,"ECCENTRICITY":0.0002357,"INCLINATION":97.6017,"RA_OF_ASC_NODE":302.6217,"ARG_OF_PERICENTER":70.2971,"MEAN_ANOMALY":289.8509,"EPHEMERIS_TYPE":0,"CLASSIFICATION_TYPE":"U","NORAD_CAT_ID":65188,"ELEMENT_SET_NO":999,"REV_AT_EPOCH":3260,"BSTAR":0.00022303,"MEAN_MOTION_DOT":3.159e-5,"MEAN_MOTION_DDOT":0},{"OBJECT_NAME":"CZ-6A DEB","OBJECT_ID":"2022-151NM","EPOCH":"2026-03-09T04:15:16.361280","MEAN_MOTION":14.99821734,"ECCENTRICITY":0.00563118,"INCLINATION":98.6044,"RA_OF_ASC_NODE":155.614,"ARG_OF_PERICENTER":130.481,"MEAN_ANOMALY":230.1339,"EPHEMERIS_TYPE":0,"CLASSIFICATION_TYPE":"U","NORAD_CAT_ID":54611,"ELEMENT_SET_NO":999,"REV_AT_EPOCH":17682,"BSTAR":0.0044540946,"MEAN_MOTION_DOT":0.00057345,"MEAN_MOTION_DDOT":0}]
